{{Infobox Planet  
| name = 491 Carina
| image = 
| caption = 
| discovery=yes | physical_characteristics = yes | bgcolour=#FFFFC0
| discovery_ref = 
| discoverer = [[马克斯·沃夫|马克斯·沃夫]]
| discovery_site = [[海德堡|海德堡]]（[[天文台编号列表|024]]）
| discovered =  1902年9月3日
| mp_name = 491
| alt_names = 1902 JQ
| named_after = 
| mp_category=[[小行星带|主带小行星]]
| orbit_ref = <ref>[http://ssd.jpl.nasa.gov/sbdb.cgi?sstr=491 491 Carina (1902 JQ)]</ref>
| epoch = 2011年8月27日
| semimajor= 3.19462223429404AU
| perihelion=2.906727738238726AU
| aphelion= 3.482516730349353[[天文单位|AU]]
| eccentricity =0.09011847878750322					
| period =2085.584026217848[[日|地球日]]<br>5.71[[年|地球年]] 
| inclination=18.87541795633803[[角度|°]]
| asc_node=175.5239200782804°
| arg_peri=234.4054098256974°
| mean_anomaly=343.1321552508272°
| avg_speed=
 | dimensions=97.29千米
 | mass=
 | density=
 | surface_grav=
 | escape_velocity=
 | rotation=14.87小时
 | spectral_type= [[C-型小行星|C]]
 | magnitude=
 | abs_magnitude=8.50
 | albedo=0.0743
 | single_temperature=
}}
'''小行星491'''（'''491 Carina'''），是由[[德国|德国]][[天文学家|天文学家]][[马克斯·沃夫|马克斯·沃夫]]于1902年9月3日在德国[[海德堡|海德堡]][[王座山天文台|王座山天文台]]利用照相法发现的[[小行星带|主带]][[小行星|小行星]]。

小行星491的命名依据不详。

== 参考资料 ==
{{Reflist}}

{{Minor Planet Number|(490)[[小行星490|小行星490]]|(492)[[小行星492|小行星492]]}}

[[Category:小行星带天体|Category:小行星带天体]]
[[Category:1902年发现的小行星|Category:1902年发现的小行星]]
[[Category:C-型小行星|Category:C-型小行星]]